[{"CCSDS_OMM_VERS":"2.0","COMMENT":"GENERATED VIA SPACE-TRACK.ORG API","CREATION_DATE":"2021-02-16T03:06:02","ORIGINATOR":"18 SPCS","OBJECT_NAME":"ONEWEB-0135","OBJECT_ID":"2020-100Z","CENTER_NAME":"EARTH","REF_FRAME":"TEME","TIME_SYSTEM":"UTC","MEAN_ELEMENT_THEORY":"SGP4","EPOCH":"2021-02-15T22:00:01.999584","MEAN_MOTION":"14.34210993","ECCENTRICITY":"0.00144410","INCLINATION":"87.5972","RA_OF_ASC_NODE":"19.9258","ARG_OF_PERICENTER":"50.4534","MEAN_ANOMALY":"221.1680","EPHEMERIS_TYPE":"0","CLASSIFICATION_TYPE":"U","NORAD_CAT_ID":"47281","ELEMENT_SET_NO":"999","REV_AT_EPOCH":"173","BSTAR":"-0.51919000000000","MEAN_MOTION_DOT":"-0.01350247","MEAN_MOTION_DDOT":"0.0000000000000","SEMIMAJOR_AXIS":"7155.827","PERIOD":"100.404","APOAPSIS":"788.025","PERIAPSIS":"767.358","OBJECT_TYPE":"PAYLOAD","RCS_SIZE":"MEDIUM","COUNTRY_CODE":"UK","LAUNCH_DATE":"2020-12-18","SITE":"VOSTO","DECAY_DATE":null,"FILE":"2963362","GP_ID":"171875740","TLE_LINE0":"0 ONEWEB-0135","TLE_LINE1":"1 47281U 20100Z   21046.91668981 -.01350247  00000-0 -51919+0 0  9994","TLE_LINE2":"2 47281  87.5972  19.9258 0014441  50.4534 221.1680 14.34210993  1738"},{"CCSDS_OMM_VERS":"2.0","COMMENT":"GENERATED VIA SPACE-TRACK.ORG API","CREATION_DATE":"2021-02-16T06:36:11","ORIGINATOR":"18 SPCS","OBJECT_NAME":"ONEWEB-0135","OBJECT_ID":"2020-100Z","CENTER_NAME":"EARTH","REF_FRAME":"TEME","TIME_SYSTEM":"UTC","MEAN_ELEMENT_THEORY":"SGP4","EPOCH":"2021-02-16T04:00:00.999936","MEAN_MOTION":"14.33482442","ECCENTRICITY":"0.00146460","INCLINATION":"87.5987","RA_OF_ASC_NODE":"19.8552","ARG_OF_PERICENTER":"48.6108","MEAN_ANOMALY":"72.5989","EPHEMERIS_TYPE":"0","CLASSIFICATION_TYPE":"U","NORAD_CAT_ID":"47281","ELEMENT_SET_NO":"999","REV_AT_EPOCH":"898","BSTAR":"-0.54835000000000","MEAN_MOTION_DOT":"-0.01417278","MEAN_MOTION_DDOT":"0.0000000000000","SEMIMAJOR_AXIS":"7158.251","PERIOD":"100.455","APOAPSIS":"790.600","PERIAPSIS":"769.632","OBJECT_TYPE":"PAYLOAD","RCS_SIZE":"MEDIUM","COUNTRY_CODE":"UK","LAUNCH_DATE":"2020-12-18","SITE":"VOSTO","DECAY_DATE":null,"FILE":"2963459","GP_ID":"171879188","TLE_LINE0":"0 ONEWEB-0135","TLE_LINE1":"1 47281U 20100Z   21047.16667824 -.01417278  00000-0 -54835+0 0  9995","TLE_LINE2":"2 47281  87.5987  19.8552 0014646  48.6108  72.5989 14.33482442  8986"},{"CCSDS_OMM_VERS":"2.0","COMMENT":"GENERATED VIA SPACE-TRACK.ORG API","CREATION_DATE":"2021-02-16T18:55:05","ORIGINATOR":"18 SPCS","OBJECT_NAME":"ONEWEB-0135","OBJECT_ID":"2020-100Z","CENTER_NAME":"EARTH","REF_FRAME":"TEME","TIME_SYSTEM":"UTC","MEAN_ELEMENT_THEORY":"SGP4","EPOCH":"2021-02-16T14:00:01.000224","MEAN_MOTION":"14.32253008","ECCENTRICITY":"0.00146810","INCLINATION":"87.6013","RA_OF_ASC_NODE":"19.7400","ARG_OF_PERICENTER":"47.5021","MEAN_ANOMALY":"61.6158","EPHEMERIS_TYPE":"0","CLASSIFICATION_TYPE":"U","NORAD_CAT_ID":"47281","ELEMENT_SET_NO":"999","REV_AT_EPOCH":"175","BSTAR":"-0.57780000000000","MEAN_MOTION_DOT":"-0.01455271","MEAN_MOTION_DDOT":"0.0000000000000","SEMIMAJOR_AXIS":"7162.347","PERIOD":"100.541","APOAPSIS":"794.727","PERIAPSIS":"773.697","OBJECT_TYPE":"PAYLOAD","RCS_SIZE":"MEDIUM","COUNTRY_CODE":"UK","LAUNCH_DATE":"2020-12-18","SITE":"VOSTO","DECAY_DATE":null,"FILE":"2964226","GP_ID":"171918082","TLE_LINE0":"0 ONEWEB-0135","TLE_LINE1":"1 47281U 20100Z   21047.58334491 -.01455271  00000-0 -57780+0 0  9999","TLE_LINE2":"2 47281  87.6013  19.7400 0014681  47.5021  61.6158 14.32253008  1757"},{"CCSDS_OMM_VERS":"2.0","COMMENT":"GENERATED VIA SPACE-TRACK.ORG API","CREATION_DATE":"2021-02-16T22:26:12","ORIGINATOR":"18 SPCS","OBJECT_NAME":"ONEWEB-0135","OBJECT_ID":"2020-100Z","CENTER_NAME":"EARTH","REF_FRAME":"TEME","TIME_SYSTEM":"UTC","MEAN_ELEMENT_THEORY":"SGP4","EPOCH":"2021-02-16T20:00:01.000224","MEAN_MOTION":"14.31467517","ECCENTRICITY":"0.00142980","INCLINATION":"87.6030","RA_OF_ASC_NODE":"19.6710","ARG_OF_PERICENTER":"47.3041","MEAN_ANOMALY":"269.6696","EPHEMERIS_TYPE":"0","CLASSIFICATION_TYPE":"U","NORAD_CAT_ID":"47281","ELEMENT_SET_NO":"999","REV_AT_EPOCH":"908","BSTAR":"-0.55597000000000","MEAN_MOTION_DOT":"-0.01368910","MEAN_MOTION_DDOT":"0.0000000000000","SEMIMAJOR_AXIS":"7164.967","PERIOD":"100.596","APOAPSIS":"797.076","PERIAPSIS":"776.587","OBJECT_TYPE":"PAYLOAD","RCS_SIZE":"MEDIUM","COUNTRY_CODE":"UK","LAUNCH_DATE":"2020-12-18","SITE":"VOSTO","DECAY_DATE":null,"FILE":"2964341","GP_ID":"171920720","TLE_LINE0":"0 ONEWEB-0135","TLE_LINE1":"1 47281U 20100Z   21047.83334491 -.01368910  00000-0 -55597+0 0  9994","TLE_LINE2":"2 47281  87.6030  19.6710 0014298  47.3041 269.6696 14.31467517  9085"},{"CCSDS_OMM_VERS":"2.0","COMMENT":"GENERATED VIA SPACE-TRACK.ORG API","CREATION_DATE":"2021-02-17T06:26:12","ORIGINATOR":"18 SPCS","OBJECT_NAME":"ONEWEB-0135","OBJECT_ID":"2020-100Z","CENTER_NAME":"EARTH","REF_FRAME":"TEME","TIME_SYSTEM":"UTC","MEAN_ELEMENT_THEORY":"SGP4","EPOCH":"2021-02-17T04:00:00.999936","MEAN_MOTION":"14.30472607","ECCENTRICITY":"0.00144500","INCLINATION":"87.6051","RA_OF_ASC_NODE":"19.5775","ARG_OF_PERICENTER":"46.2675","MEAN_ANOMALY":"186.7950","EPHEMERIS_TYPE":"0","CLASSIFICATION_TYPE":"U","NORAD_CAT_ID":"47281","ELEMENT_SET_NO":"999","REV_AT_EPOCH":"913","BSTAR":"-0.57865000000000","MEAN_MOTION_DOT":"-0.01410592","MEAN_MOTION_DDOT":"0.0000000000000","SEMIMAJOR_AXIS":"7168.289","PERIOD":"100.666","APOAPSIS":"800.512","PERIAPSIS":"779.795","OBJECT_TYPE":"PAYLOAD","RCS_SIZE":"MEDIUM","COUNTRY_CODE":"UK","LAUNCH_DATE":"2020-12-18","SITE":"VOSTO","DECAY_DATE":null,"FILE":"2964681","GP_ID":"171927762","TLE_LINE0":"0 ONEWEB-0135","TLE_LINE1":"1 47281U 20100Z   21048.16667824 -.01410592  00000-0 -57865+0 0  9994","TLE_LINE2":"2 47281  87.6051  19.5775 0014450  46.2675 186.7950 14.30472607  9132"},{"CCSDS_OMM_VERS":"2.0","COMMENT":"GENERATED VIA SPACE-TRACK.ORG API","CREATION_DATE":"2021-02-17T18:54:02","ORIGINATOR":"18 SPCS","OBJECT_NAME":"ONEWEB-0135","OBJECT_ID":"2020-100Z","CENTER_NAME":"EARTH","REF_FRAME":"TEME","TIME_SYSTEM":"UTC","MEAN_ELEMENT_THEORY":"SGP4","EPOCH":"2021-02-17T14:00:01.999872","MEAN_MOTION":"14.29248001","ECCENTRICITY":"0.00145350","INCLINATION":"87.6077","RA_OF_ASC_NODE":"19.4632","ARG_OF_PERICENTER":"45.3635","MEAN_ANOMALY":"171.1720","EPHEMERIS_TYPE":"0","CLASSIFICATION_TYPE":"U","NORAD_CAT_ID":"47281","ELEMENT_SET_NO":"999","REV_AT_EPOCH":"173","BSTAR":"-0.60980000000000","MEAN_MOTION_DOT":"-0.01449060","MEAN_MOTION_DDOT":"0.0000000000000","SEMIMAJOR_AXIS":"7172.383","PERIOD":"100.752","APOAPSIS":"804.673","PERIAPSIS":"783.822","OBJECT_TYPE":"PAYLOAD","RCS_SIZE":"MEDIUM","COUNTRY_CODE":"UK","LAUNCH_DATE":"2020-12-18","SITE":"VOSTO","DECAY_DATE":null,"FILE":"2965550","GP_ID":"171967806","TLE_LINE0":"0 ONEWEB-0135","TLE_LINE1":"1 47281U 20100Z   21048.58335648 -.01449060  00000-0 -60980+0 0  9990","TLE_LINE2":"2 47281  87.6077  19.4632 0014535  45.3635 171.1720 14.29248001  1739"},{"CCSDS_OMM_VERS":"2.0","COMMENT":"GENERATED VIA SPACE-TRACK.ORG API","CREATION_DATE":"2021-02-17T22:36:11","ORIGINATOR":"18 SPCS","OBJECT_NAME":"ONEWEB-0135","OBJECT_ID":"2020-100Z","CENTER_NAME":"EARTH","REF_FRAME":"TEME","TIME_SYSTEM":"UTC","MEAN_ELEMENT_THEORY":"SGP4","EPOCH":"2021-02-17T20:00:01.999872","MEAN_MOTION":"14.28460297","ECCENTRICITY":"0.00144240","INCLINATION":"87.6093","RA_OF_ASC_NODE":"19.3947","ARG_OF_PERICENTER":"43.7752","MEAN_ANOMALY":"17.9204","EPHEMERIS_TYPE":"0","CLASSIFICATION_TYPE":"U","NORAD_CAT_ID":"47281","ELEMENT_SET_NO":"999","REV_AT_EPOCH":"922","BSTAR":"-0.58346000000000","MEAN_MOTION_DOT":"-0.01356252","MEAN_MOTION_DDOT":"0.0000000000000","SEMIMAJOR_AXIS":"7175.019","PERIOD":"100.808","APOAPSIS":"807.233","PERIAPSIS":"786.535","OBJECT_TYPE":"PAYLOAD","RCS_SIZE":"MEDIUM","COUNTRY_CODE":"UK","LAUNCH_DATE":"2020-12-18","SITE":"VOSTO","DECAY_DATE":null,"FILE":"2965630","GP_ID":"171969932","TLE_LINE0":"0 ONEWEB-0135","TLE_LINE1":"1 47281U 20100Z   21048.83335648 -.01356252  00000-0 -58346+0 0  9991","TLE_LINE2":"2 47281  87.6093  19.3947 0014424  43.7752  17.9204 14.28460297  9222"},{"CCSDS_OMM_VERS":"2.0","COMMENT":"GENERATED VIA SPACE-TRACK.ORG API","CREATION_DATE":"2021-02-18T03:25:47","ORIGINATOR":"18 SPCS","OBJECT_NAME":"ONEWEB-0135","OBJECT_ID":"2020-100Z","CENTER_NAME":"EARTH","REF_FRAME":"TEME","TIME_SYSTEM":"UTC","MEAN_ELEMENT_THEORY":"SGP4","EPOCH":"2021-02-17T22:00:00.999936","MEAN_MOTION":"14.28251144","ECCENTRICITY":"0.00146150","INCLINATION":"87.6097","RA_OF_ASC_NODE":"19.3716","ARG_OF_PERICENTER":"44.2167","MEAN_ANOMALY":"85.6407","EPHEMERIS_TYPE":"0","CLASSIFICATION_TYPE":"U","NORAD_CAT_ID":"47281","ELEMENT_SET_NO":"999","REV_AT_EPOCH":"173","BSTAR":"-0.61672000000000","MEAN_MOTION_DOT":"-0.01438278","MEAN_MOTION_DDOT":"0.0000000000000","SEMIMAJOR_AXIS":"7175.720","PERIOD":"100.823","APOAPSIS":"808.072","PERIAPSIS":"787.097","OBJECT_TYPE":"PAYLOAD","RCS_SIZE":"MEDIUM","COUNTRY_CODE":"UK","LAUNCH_DATE":"2020-12-18","SITE":"VOSTO","DECAY_DATE":null,"FILE":"2965850","GP_ID":"171996172","TLE_LINE0":"0 ONEWEB-0135","TLE_LINE1":"1 47281U 20100Z   21048.91667824 -.01438278  00000-0 -61672+0 0  9999","TLE_LINE2":"2 47281  87.6097  19.3716 0014615  44.2167  85.6407 14.28251144  1732"}]